OBJECT_NAME,OBJECT_ID,EPOCH,MEAN_MOTION,ECCENTRICITY,INCLINATION,RA_OF_ASC_NODE,ARG_OF_PERICENTER,MEAN_ANOMALY,EPHEMERIS_TYPE,CLASSIFICATION_TYPE,NORAD_CAT_ID,ELEMENT_SET_NO,REV_AT_EPOCH,BSTAR,MEAN_MOTION_DOT,MEAN_MOTION_DDOT
CUBEBUG-2 (LO-74),2013-066AA,2026-06-19T17:49:21.463392,14.93781455,.0058222,97.8909,119.7314,20.8398,339.5176,0,U,39440,999,67737,.39108E-3,.4224E-4,0
FUNCUBE-1 (AO-73),2013-066AE,2026-06-19T09:02:23.265024,15.09511616,.00358347,97.8280,141.8681,193.1795,166.8500,0,U,39444,999,67999,.3092781E-3,.4964E-4,0
UWE-3,2013-066AG,2026-06-19T19:44:16.054656,14.97042673,.0047239,97.8700,126.9136,312.3299,47.3925,0,U,39446,999,67797,.32306E-3,.3743E-4,0
UNISAT-6,2014-033C,2026-06-19T08:26:54.773376,14.88254745,.00461593,97.7885,323.0255,62.3770,298.2123,0,U,40012,999,64648,.23171108E-3,.2126E-4,0
DUCHIFAT-1,2014-033M,2026-06-19T15:26:40.477920,15.65018762,.0002569,98.0454,230.1491,110.7852,249.3681,0,U,40021,999,65613,.96085E-3,.95101E-3,0
QB50P1,2014-033R,2026-06-19T06:13:02.525664,15.18285787,.00080059,98.0964,181.5504,207.6997,152.3810,0,U,40025,999,65334,.33443702E-3,.6785E-4,0
LILACSAT-2,2015-049K,2026-06-19T20:27:04.423392,15.51517172,.0005683,97.4640,207.7953,232.3883,127.6853,0,U,40908,999,59616,.24404E-3,.14346E-3,0
FOX-1A (AO-85),2015-058D,2026-06-19T18:24:49.502304,14.90978964,.013057,64.7745,270.9655,55.6095,305.7282,0,U,40967,999,11395,.16076E-3,.1694E-4,0
CAS-2T & KS-1Q,2016-066G,2026-06-19T17:36:58.058784,14.44701664,.0342865,98.3821,246.4413,121.7773,241.7303,0,U,41847,999,50516,.19133E-3,.1315E-4,0
RADFXSAT (FOX-1B),2017-073E,2026-06-19T14:08:32.260992,15.12745467,.01493691,97.4695,37.7543,320.8671,38.1830,0,U,43017,999,46575,.27795465E-3,.6334E-4,0
DIWATA-2B,2018-084H,2026-06-19T20:05:49.492896,15.00462775,.0012724,98.1185,7.1604,161.6298,198.5387,0,U,43678,999,41661,.17098E-3,.2089E-4,0
ES'HAIL 2,2018-090A,2026-06-19T18:07:56.407872,1.00272144,.0001779,0.0135,53.5670,70.9931,81.1783,0,U,43700,999,2770,0,.138E-5,0
FOX-1CLIFF (AO-95),2018-099N,2026-06-19T16:47:03.147072,15.26755639,.0007708,97.4377,230.9364,348.2880,11.8178,0,U,43770,999,41360,.35595E-3,.93E-4,0
ITASAT,2018-099AE,2026-06-19T15:45:25.322976,15.19082149,.0011828,97.4023,222.1190,351.5334,8.5699,0,U,43786,999,41328,.23743E-3,.4921E-4,0
JY1SAT (JO-97),2018-099AX,2026-06-19T16:55:58.418400,15.33718827,.0004492,97.4125,233.5484,250.8022,109.2735,0,U,43803,999,41401,.4274E-3,.13869E-3,0
UWE-4,2018-111E,2026-06-19T17:44:17.409696,15.46259003,.0005068,97.5852,99.2477,330.7949,29.3015,0,U,43880,999,41117,.56934E-3,.28E-3,0
TIANYAN 01,2019-093C,2026-06-19T19:18:34.625088,14.86520390,.001504,97.7528,242.9728,79.1516,281.1392,0,U,44881,999,35180,.24813E-4,.167E-5,0
RS-44 & BREEZE-KM R/B,2019-096E,2026-06-19T12:10:04.627200,12.79748873,.02182571,82.5220,338.1631,138.7616,223.0205,0,U,44909,999,30264,-.9791032E-5,.1E-6,0
SALSAT,2020-068K,2026-06-19T19:51:17.615808,15.29831081,.0007893,97.8854,174.0526,297.0230,63.0203,0,U,46495,999,31576,.22493E-3,.6419E-4,0
XW-3 (CAS-9),2021-131B,2026-06-19T19:57:10.983168,14.41359619,.0005403,98.4983,263.2068,90.7607,269.4201,0,U,50466,999,23549,.15264E-3,.45E-5,0
GREENCUBE (IO-117),2022-080E,2026-06-19T16:11:15.141984,6.42583159,.0008827,70.1442,297.3799,289.0639,70.9064,0,U,53109,999,9222,0,-.3E-7,0
UMKA 1 (RS40S),2023-091G,2026-06-19T20:34:33.596256,15.20843546,.0014324,97.5046,229.5444,109.3771,250.9014,0,U,57172,999,16441,.22835E-3,.4983E-4,0
CUBESX-HSE 3 (RS42S),2023-091N,2026-06-19T20:28:30.628128,15.31270695,.0011962,97.5086,236.4742,86.5917,273.6692,0,U,57178,999,16483,.37566E-3,.11296E-3,0
MONITOR-3 (RS58S),2023-091Q,2026-06-19T19:37:56.855424,15.27885341,.001306,97.5078,234.2836,92.7120,267.5615,0,U,57180,999,16469,.31291E-3,.8464E-4,0
MONITOR-4 (RS57S),2023-091S,2026-06-19T20:41:52.918656,15.27972148,.001306,97.5072,234.2997,92.9524,267.3210,0,U,57182,999,16470,.33168E-3,.9E-4,0
MONITOR-2 (RS39S),2023-091U,2026-06-19T19:35:07.780992,15.18930786,.0012779,97.5067,229.0822,103.1643,257.1018,0,U,57184,999,16435,.18299E-3,.376E-4,0
SVYATOBOR 1 (RS60S),2023-091X,2026-06-19T19:29:39.901632,15.26651996,.0010832,97.5084,234.6440,86.6942,273.5536,0,U,57187,999,16471,.27999E-3,.7279E-4,0
VIZARD-METEO (RS38S),2023-091Z,2026-06-19T19:38:39.225120,15.36095446,.0008105,97.5087,240.3566,69.9278,290.2837,0,U,57189,999,16509,.40266E-3,.14098E-3,0
POLYTECH-UNIVERSE 3 (RS46S),2023-091AB,2026-06-19T20:13:47.946720,15.19133845,.001699,97.5043,228.6133,118.3613,241.9337,0,U,57191,999,16435,.21003E-3,.4358E-4,0
UTMN 2 (RS27S),2023-091AP,2026-06-19T19:17:41.443296,15.32104727,.0009136,97.5083,238.0615,76.0306,284.1951,0,U,57203,999,16494,.34185E-3,.10533E-3,0
